FENGYUN 1C DEB          
1 33709U 99025DGW 17345.53388786  .00006799  00000-0  51684-3 0  9993
2 33709  99.0542   6.8795 0048615 217.4769 142.3058 15.01626374515861
